UNKNOWN                 
1 82741U          25320.33667594  .00003449  00000+0  37395-2 0  9995
2 82741 102.8489 347.2911 0199607 324.7991  34.0090 13.65852577593473
UNKNOWN                 
1 82783U          25319.65284913  .00001217  00000+0  35304-2 0  9993
2 82783  90.3409  37.3111 0026696 182.6934 177.4054 13.08974585500815
UNKNOWN                 
1 82798U          25320.44983762  .00003462  00000+0  15318-2 0  9993
2 82798  82.9506 212.8497 0028287 254.5304 283.8656 14.22753797308634
UNKNOWN                 
1 82820U          25320.24915955  .00006330  00000+0  22233-2 0  9997
2 82820  99.7877 117.4930 0049162  91.6194 269.0619 14.34677896621834
UNKNOWN                 
1 82829U          25304.50476488  .00000035  00000+0  21351-2 0  9996
2 82829  65.0944 126.2556 0168315 345.0925  42.7807 11.29112830481311
UNKNOWN                 
1 82854U          25319.64296815  .00002664  00000+0  21038-2 0  9991
2 82854  82.6883  85.8525 0125748 357.6005   2.4537 13.87642683604043
UNKNOWN                 
1 82873U          25318.15977364  .00008270  00000+0  35815-2 0  9999
2 82873  99.9950 208.4326 0041640   3.3733 356.7715 14.24109921617168
UNKNOWN                 
1 82875U          25312.74904287  .00002044  00000+0  53824-3 0  9998
2 82875  98.6729 296.9408 0379026  20.7317 340.8775 14.15017496539669
UNKNOWN                 
1 82893U          25320.04127545  .00012766  00000+0  48434-2 0  9996
2 82893  98.9645  74.2876 0025898 126.2109 234.1472 14.31001522420154
UNKNOWN                 
1 82912U          25320.06274483  .00004641  00000+0  18971-2 0  9990
2 82912  65.8367 235.7460 0778809 280.9349  70.5088 13.27414634575785
UNKNOWN                 
1 82961U          25318.40116644  .00011818  00000+0  19410-1 0  9995
2 82961  99.9228 114.3267 0377709  73.7432 290.4886 13.22638063551967
UNKNOWN                 
1 82965U          25317.18334158  .00001790  00000+0  24663-2 0  9990
2 82965 100.1171  35.7529 0002510 185.9272 174.1837 13.59911773520437
