CCSDS_OMM_VERS = 2.0
CREATION_DATE  = 
ORIGINATOR     = 

OBJECT_NAME    = UNKNOWN
OBJECT_ID      = 
CENTER_NAME    = EARTH
REF_FRAME      = TEME
TIME_SYSTEM    = UTC
MEAN_ELEMENT_THEORY = SGP/SGP4

EPOCH          = 2025-11-16T08:04:48.801216
MEAN_MOTION    = 13.65852577
ECCENTRICITY   = .0199607
INCLINATION    = 102.8489
RA_OF_ASC_NODE = 347.2911
ARG_OF_PERICENTER = 324.7991
MEAN_ANOMALY   = 34.0090

EPHEMERIS_TYPE = 0
CLASSIFICATION_TYPE = U
NORAD_CAT_ID   = 82741
ELEMENT_SET_NO = 999
REV_AT_EPOCH   = 59347
BSTAR          = .37395E-2
MEAN_MOTION_DOT = .3449E-4
MEAN_MOTION_DDOT = 0

CCSDS_OMM_VERS = 2.0
CREATION_DATE  = 
ORIGINATOR     = 

OBJECT_NAME    = UNKNOWN
OBJECT_ID      = 
CENTER_NAME    = EARTH
REF_FRAME      = TEME
TIME_SYSTEM    = UTC
MEAN_ELEMENT_THEORY = SGP/SGP4

EPOCH          = 2025-11-15T15:40:06.164832
MEAN_MOTION    = 13.08974585
ECCENTRICITY   = .0026696
INCLINATION    = 90.3409
RA_OF_ASC_NODE = 37.3111
ARG_OF_PERICENTER = 182.6934
MEAN_ANOMALY   = 177.4054

EPHEMERIS_TYPE = 0
CLASSIFICATION_TYPE = U
NORAD_CAT_ID   = 82783
ELEMENT_SET_NO = 999
REV_AT_EPOCH   = 50081
BSTAR          = .35304E-2
MEAN_MOTION_DOT = .1217E-4
MEAN_MOTION_DDOT = 0

CCSDS_OMM_VERS = 2.0
CREATION_DATE  = 
ORIGINATOR     = 

OBJECT_NAME    = UNKNOWN
OBJECT_ID      = 
CENTER_NAME    = EARTH
REF_FRAME      = TEME
TIME_SYSTEM    = UTC
MEAN_ELEMENT_THEORY = SGP/SGP4

EPOCH          = 2025-11-16T10:47:45.970368
MEAN_MOTION    = 14.22753797
ECCENTRICITY   = .0028287
INCLINATION    = 82.9506
RA_OF_ASC_NODE = 212.8497
ARG_OF_PERICENTER = 254.5304
MEAN_ANOMALY   = 283.8656

EPHEMERIS_TYPE = 0
CLASSIFICATION_TYPE = U
NORAD_CAT_ID   = 82798
ELEMENT_SET_NO = 999
REV_AT_EPOCH   = 30863
BSTAR          = .15318E-2
MEAN_MOTION_DOT = .3462E-4
MEAN_MOTION_DDOT = 0

CCSDS_OMM_VERS = 2.0
CREATION_DATE  = 
ORIGINATOR     = 

OBJECT_NAME    = UNKNOWN
OBJECT_ID      = 
CENTER_NAME    = EARTH
REF_FRAME      = TEME
TIME_SYSTEM    = UTC
MEAN_ELEMENT_THEORY = SGP/SGP4

EPOCH          = 2025-11-16T05:58:47.385120
MEAN_MOTION    = 14.34677896
ECCENTRICITY   = .0049162
INCLINATION    = 99.7877
RA_OF_ASC_NODE = 117.4930
ARG_OF_PERICENTER = 91.6194
MEAN_ANOMALY   = 269.0619

EPHEMERIS_TYPE = 0
CLASSIFICATION_TYPE = U
NORAD_CAT_ID   = 82820
ELEMENT_SET_NO = 999
REV_AT_EPOCH   = 62183
BSTAR          = .22233E-2
MEAN_MOTION_DOT = .633E-4
MEAN_MOTION_DDOT = 0

CCSDS_OMM_VERS = 2.0
CREATION_DATE  = 
ORIGINATOR     = 

OBJECT_NAME    = UNKNOWN
OBJECT_ID      = 
CENTER_NAME    = EARTH
REF_FRAME      = TEME
TIME_SYSTEM    = UTC
MEAN_ELEMENT_THEORY = SGP/SGP4

EPOCH          = 2025-10-31T12:06:51.685632
MEAN_MOTION    = 11.29112830
ECCENTRICITY   = .0168315
INCLINATION    = 65.0944
RA_OF_ASC_NODE = 126.2556
ARG_OF_PERICENTER = 345.0925
MEAN_ANOMALY   = 42.7807

EPHEMERIS_TYPE = 0
CLASSIFICATION_TYPE = U
NORAD_CAT_ID   = 82829
ELEMENT_SET_NO = 999
REV_AT_EPOCH   = 48131
BSTAR          = .21351E-2
MEAN_MOTION_DOT = .35E-6
MEAN_MOTION_DDOT = 0

CCSDS_OMM_VERS = 2.0
CREATION_DATE  = 
ORIGINATOR     = 

OBJECT_NAME    = UNKNOWN
OBJECT_ID      = 
CENTER_NAME    = EARTH
REF_FRAME      = TEME
TIME_SYSTEM    = UTC
MEAN_ELEMENT_THEORY = SGP/SGP4

EPOCH          = 2025-11-15T15:25:52.448160
MEAN_MOTION    = 13.87642683
ECCENTRICITY   = .0125748
INCLINATION    = 82.6883
RA_OF_ASC_NODE = 85.8525
ARG_OF_PERICENTER = 357.6005
MEAN_ANOMALY   = 2.4537

EPHEMERIS_TYPE = 0
CLASSIFICATION_TYPE = U
NORAD_CAT_ID   = 82854
ELEMENT_SET_NO = 999
REV_AT_EPOCH   = 60404
BSTAR          = .21038E-2
MEAN_MOTION_DOT = .2664E-4
MEAN_MOTION_DDOT = 0

CCSDS_OMM_VERS = 2.0
CREATION_DATE  = 
ORIGINATOR     = 

OBJECT_NAME    = UNKNOWN
OBJECT_ID      = 
CENTER_NAME    = EARTH
REF_FRAME      = TEME
TIME_SYSTEM    = UTC
MEAN_ELEMENT_THEORY = SGP/SGP4

EPOCH          = 2025-11-14T03:50:04.442496
MEAN_MOTION    = 14.24109921
ECCENTRICITY   = .004164
INCLINATION    = 99.9950
RA_OF_ASC_NODE = 208.4326
ARG_OF_PERICENTER = 3.3733
MEAN_ANOMALY   = 356.7715

EPHEMERIS_TYPE = 0
CLASSIFICATION_TYPE = U
NORAD_CAT_ID   = 82873
ELEMENT_SET_NO = 999
REV_AT_EPOCH   = 61716
BSTAR          = .35815E-2
MEAN_MOTION_DOT = .827E-4
MEAN_MOTION_DDOT = 0

CCSDS_OMM_VERS = 2.0
CREATION_DATE  = 
ORIGINATOR     = 

OBJECT_NAME    = UNKNOWN
OBJECT_ID      = 
CENTER_NAME    = EARTH
REF_FRAME      = TEME
TIME_SYSTEM    = UTC
MEAN_ELEMENT_THEORY = SGP/SGP4

EPOCH          = 2025-11-08T17:58:37.303968
MEAN_MOTION    = 14.15017496
ECCENTRICITY   = .0379026
INCLINATION    = 98.6729
RA_OF_ASC_NODE = 296.9408
ARG_OF_PERICENTER = 20.7317
MEAN_ANOMALY   = 340.8775

EPHEMERIS_TYPE = 0
CLASSIFICATION_TYPE = U
NORAD_CAT_ID   = 82875
ELEMENT_SET_NO = 999
REV_AT_EPOCH   = 53966
BSTAR          = .53824E-3
MEAN_MOTION_DOT = .2044E-4
MEAN_MOTION_DDOT = 0

CCSDS_OMM_VERS = 2.0
CREATION_DATE  = 
ORIGINATOR     = 

OBJECT_NAME    = UNKNOWN
OBJECT_ID      = 
CENTER_NAME    = EARTH
REF_FRAME      = TEME
TIME_SYSTEM    = UTC
MEAN_ELEMENT_THEORY = SGP/SGP4

EPOCH          = 2025-11-16T00:59:26.198880
MEAN_MOTION    = 14.31001522
ECCENTRICITY   = .0025898
INCLINATION    = 98.9645
RA_OF_ASC_NODE = 74.2876
ARG_OF_PERICENTER = 126.2109
MEAN_ANOMALY   = 234.1472

EPHEMERIS_TYPE = 0
CLASSIFICATION_TYPE = U
NORAD_CAT_ID   = 82893
ELEMENT_SET_NO = 999
REV_AT_EPOCH   = 42015
BSTAR          = .48434E-2
MEAN_MOTION_DOT = .12766E-3
MEAN_MOTION_DDOT = 0

CCSDS_OMM_VERS = 2.0
CREATION_DATE  = 
ORIGINATOR     = 

OBJECT_NAME    = UNKNOWN
OBJECT_ID      = 
CENTER_NAME    = EARTH
REF_FRAME      = TEME
TIME_SYSTEM    = UTC
MEAN_ELEMENT_THEORY = SGP/SGP4

EPOCH          = 2025-11-16T01:30:21.153312
MEAN_MOTION    = 13.27414634
ECCENTRICITY   = .0778809
INCLINATION    = 65.8367
RA_OF_ASC_NODE = 235.7460
ARG_OF_PERICENTER = 280.9349
MEAN_ANOMALY   = 70.5088

EPHEMERIS_TYPE = 0
CLASSIFICATION_TYPE = U
NORAD_CAT_ID   = 82912
ELEMENT_SET_NO = 999
REV_AT_EPOCH   = 57578
BSTAR          = .18971E-2
MEAN_MOTION_DOT = .4641E-4
MEAN_MOTION_DDOT = 0

CCSDS_OMM_VERS = 2.0
CREATION_DATE  = 
ORIGINATOR     = 

OBJECT_NAME    = UNKNOWN
OBJECT_ID      = 
CENTER_NAME    = EARTH
REF_FRAME      = TEME
TIME_SYSTEM    = UTC
MEAN_ELEMENT_THEORY = SGP/SGP4

EPOCH          = 2025-11-14T09:37:40.780416
MEAN_MOTION    = 13.22638063
ECCENTRICITY   = .0377709
INCLINATION    = 99.9228
RA_OF_ASC_NODE = 114.3267
ARG_OF_PERICENTER = 73.7432
MEAN_ANOMALY   = 290.4886

EPHEMERIS_TYPE = 0
CLASSIFICATION_TYPE = U
NORAD_CAT_ID   = 82961
ELEMENT_SET_NO = 999
REV_AT_EPOCH   = 55196
BSTAR          = .1941E-1
MEAN_MOTION_DOT = .11818E-3
MEAN_MOTION_DDOT = 0

CCSDS_OMM_VERS = 2.0
CREATION_DATE  = 
ORIGINATOR     = 

OBJECT_NAME    = UNKNOWN
OBJECT_ID      = 
CENTER_NAME    = EARTH
REF_FRAME      = TEME
TIME_SYSTEM    = UTC
MEAN_ELEMENT_THEORY = SGP/SGP4

EPOCH          = 2025-11-13T04:24:00.712512
MEAN_MOTION    = 13.59911773
ECCENTRICITY   = .000251
INCLINATION    = 100.1171
RA_OF_ASC_NODE = 35.7529
ARG_OF_PERICENTER = 185.9272
MEAN_ANOMALY   = 174.1837

EPHEMERIS_TYPE = 0
CLASSIFICATION_TYPE = U
NORAD_CAT_ID   = 82965
ELEMENT_SET_NO = 999
REV_AT_EPOCH   = 52043
BSTAR          = .24663E-2
MEAN_MOTION_DOT = .179E-4
MEAN_MOTION_DDOT = 0

